NORAD_CAT_ID,OBJECT_NAME,OBJECT_TYPE,EPOCH,MEAN_MOTION,ECCENTRICITY,INCLINATION,RA_OF_ASC_NODE,ARG_OF_PERICENTER,MEAN_ANOMALY,BSTAR,MEAN_MOTION_DOT,MEAN_MOTION_DDOT,TLE_LINE0,TLE_LINE1,TLE_LINE2,SEMIMAJOR_AXIS,PERIOD,APOGEE,PERIGEE,DECAYED
51714.0,STARLINK-3528,PAYLOAD,2023-05-30 21:01:56,15.08838337,0.0001071,53.2154,200.3033,82.709,277.4023,4.2502e-06,-2.2e-06,0.0,0 STARLINK-3528,1 51714U 22016A   23150.87635006 -.00000220  00000-0  42502-5 0  9998,2 51714  53.2154 200.3033 0001071  82.7090 277.4023 15.08838337 70374,6917.885,95.438,540.491,539.01,0.0
51714.0,STARLINK-3528,PAYLOAD,2023-05-31 09:45:01,15.08839116,0.0001029,53.2151,197.9237,85.8476,274.2634,2.2644e-05,7.3e-07,0.0,0 STARLINK-3528,1 51714U 22016A   23151.40626903  .00000073  00000-0  22644-4 0  9993,2 51714  53.2151 197.9237 0001029  85.8476 274.2634 15.08839116 71519,6917.883,95.438,540.46,539.036,0.0
51714.0,STARLINK-3528,PAYLOAD,2023-06-01 08:00:25,15.08837669,9.79e-05,53.215,193.76,87.6954,272.415,8.9237e-05,1.133e-05,0.0,0 STARLINK-3528,1 51714U 22016A   23152.33362878  .00001133  00000-0  89237-4 0  9993,2 51714  53.2150 193.7600 0000979  87.6954 272.4150 15.08837669 70591,6917.888,95.438,540.43,539.075,0.0
51714.0,STARLINK-3528,PAYLOAD,2023-06-02 03:05:02,15.08719839,0.0001997,53.2161,190.1924,126.7851,233.3022,0.0001,1.299e-05,0.0,0 STARLINK-3528,1 51714U 22016A   23153.12850545  .00001299  00000-0  10000-3 0  9998,2 51714  53.2161 190.1924 0001997 126.7851 233.3022 15.08719839 71778,6918.248,95.445,541.494,538.731,0.0
51714.0,STARLINK-3528,PAYLOAD,2023-06-02 07:51:12,15.08845221,0.000195,53.2165,189.2995,119.734,240.3899,0.0001,1.304e-05,0.0,0 STARLINK-3528,1 51714U 22016A   23153.32722851  .00001304  00000-0  10000-3 0  9995,2 51714  53.2165 189.2995 0001950 119.7340 240.3899 15.08845221 71813,6917.864,95.437,541.078,538.38,0.0
51714.0,STARLINK-3528,PAYLOAD,2023-06-02 18:58:54,15.08798568,0.000198,53.2167,187.2184,122.6608,237.4175,0.0001,1.302e-05,0.0,0 STARLINK-3528,1 51714U 22016A   23153.79090511  .00001302  00000-0  10000-3 0  9995,2 51714  53.2167 187.2184 0001980 122.6608 237.4175 15.08798568 71888,6918.007,95.44,541.242,538.502,0.0
51714.0,STARLINK-3528,PAYLOAD,2023-06-03 01:20:27,15.08837297,0.0001676,53.2169,186.0278,134.6198,225.5452,2.2776e-06,-2.52e-06,0.0,0 STARLINK-3528,1 51714U 22016A   23154.05587933 -.00000252  00000-0  22776-5 0  9993,2 51714  53.2169 186.0278 0001676 134.6198 225.5452 15.08837297 71924,6917.889,95.438,540.913,538.594,0.0
51714.0,STARLINK-3528,PAYLOAD,2023-06-03 06:06:36,15.08837219,0.0001687,53.2169,185.1357,133.6329,226.4786,2.2776e-06,-2.52e-06,0.0,0 STARLINK-3528,1 51714U 22016A   23154.25459002 -.00000252  00000-0  22776-5 0  9990,2 51714  53.2169 185.1357 0001687 133.6329 226.4786 15.08837219 71956,6917.889,95.438,540.921,538.587,0.0
51714.0,STARLINK-3528,PAYLOAD,2023-06-03 18:49:41,15.08837053,0.0001291,53.2172,182.7574,124.1428,235.9613,2.2776e-06,-2.52e-06,0.0,0 STARLINK-3528,1 51714U 22016A   23154.78451062 -.00000252  00000-0  22776-5 0  9996,2 51714  53.2172 182.7574 0001291 124.1428 235.9613 15.08837053 72030,6917.889,95.438,540.647,538.861,0.0
51714.0,STARLINK-3528,PAYLOAD,2023-06-04 05:57:23,15.08837106,0.0001315,53.2172,180.6752,128.3181,231.7939,2.2776e-06,-2.52e-06,0.0,0 STARLINK-3528,1 51714U 22016A   23155.24819230 -.00000252  00000-0  22776-5 0  9993,2 51714  53.2172 180.6752 0001315 128.3181 231.7939 15.08837106 72106,6917.889,95.438,540.664,538.845,0.0
51714.0,STARLINK-3528,PAYLOAD,2023-06-04 18:40:28,15.08837334,0.0001282,53.217,178.2971,124.0821,236.0292,2.8567e-06,-2.42e-06,0.0,0 STARLINK-3528,1 51714U 22016A   23155.77811248 -.00000242  00000-0  28567-5 0  9995,2 51714  53.2170 178.2971 0001282 124.0821 236.0292 15.08837334 72188,6917.889,95.438,540.64,538.867,0.0
51714.0,STARLINK-3528,PAYLOAD,2023-06-05 10:34:20,15.08838025,0.0001191,53.217,175.323,118.6431,241.468,7.2639e-06,-1.72e-06,0.0,0 STARLINK-3528,1 51714U 22016A   23156.44051242 -.00000172  00000-0  72639-5 0  9991,2 51714  53.2170 175.3230 0001191 118.6431 241.4680 15.08838025 72289,6917.886,95.438,540.575,538.928,0.0
51714.0,STARLINK-3528,PAYLOAD,2023-06-05 18:31:16,15.08836408,0.0001007,53.2157,173.8367,86.2992,273.8115,3.1773e-05,2.18e-06,0.0,0 STARLINK-3528,1 51714U 22016A   23156.77171770  .00000218  00000-0  31773-4 0  9999,2 51714  53.2157 173.8367 0001007  86.2992 273.8115 15.08836408 71268,6917.891,95.438,540.453,539.06,0.0
51714.0,STARLINK-3528,PAYLOAD,2023-06-06 10:25:07,15.08837933,0.0001001,53.2159,170.8631,85.8274,274.2832,2.524e-06,-2.48e-06,0.0,0 STARLINK-3528,1 51714U 22016A   23157.43411828 -.00000248  00000-0  25240-5 0  9991,2 51714  53.2159 170.8631 0001001  85.8274 274.2832 15.08837933 71369,6917.887,95.438,540.444,539.059,0.0
51714.0,STARLINK-3528,PAYLOAD,2023-06-07 03:54:22,15.08841124,9.46e-05,53.2161,167.5921,84.1584,275.9516,5.6954e-05,6.19e-06,0.0,0 STARLINK-3528,1 51714U 22016A   23158.16275477  .00000619  00000-0  56954-4 0  9996,2 51714  53.2161 167.5921 0000946  84.1584 275.9516 15.08841124 72545,6917.877,95.437,540.396,539.088,0.0
51714.0,STARLINK-3528,PAYLOAD,2023-06-07 10:15:54,15.08842662,9.62e-05,53.2161,166.4029,81.76,278.3502,5.9559e-05,6.6e-06,0.0,0 STARLINK-3528,1 51714U 22016A   23158.42771360  .00000660  00000-0  59559-4 0  9997,2 51714  53.2161 166.4029 0000962  81.7600 278.3502 15.08842662 71518,6917.872,95.437,540.403,539.072,0.0
51714.0,STARLINK-3528,PAYLOAD,2023-06-08 06:55:55,15.08840254,9.48e-05,53.2162,162.5369,81.3674,278.7426,7.8156e-05,9.56e-06,0.0,0 STARLINK-3528,1 51714U 22016A   23159.28883465  .00000956  00000-0  78156-4 0  9994,2 51714  53.2162 162.5369 0000948  81.3674 278.7426 15.08840254 72711,6917.88,95.438,540.4,539.089,0.0
51714.0,STARLINK-3528,PAYLOAD,2023-06-09 09:57:28,15.08838483,9.52e-05,53.2161,157.4819,78.5197,281.5902,-2.952e-06,-3.35e-06,0.0,0 STARLINK-3528,1 51714U 22016A   23160.41491879 -.00000335  00000-0 -29520-5 0  9990,2 51714  53.2161 157.4819 0000952  78.5197 281.5902 15.08838483 72886,6917.885,95.438,540.409,539.091,0.0
51714.0,STARLINK-3528,PAYLOAD,2023-06-09 16:19:01,15.08837821,9.53e-05,53.2161,156.2923,77.5489,282.561,-6.9813e-06,-3.99e-06,0.0,0 STARLINK-3528,1 51714U 22016A   23160.67987947 -.00000399  00000-0 -69813-5 0  9993,2 51714  53.2161 156.2923 0000953  77.5489 282.5610 15.08837821 71851,6917.887,95.438,540.411,539.093,0.0
51714.0,STARLINK-3528,PAYLOAD,2023-06-10 11:23:39,15.08838627,9.87e-05,53.2163,152.7244,78.1928,281.9175,2.6306e-05,1.31e-06,0.0,0 STARLINK-3528,1 51714U 22016A   23161.47475962  .00000131  00000-0  26306-4 0  9992,2 51714  53.2163 152.7244 0000987  78.1928 281.9175 15.08838627 71979,6917.885,95.438,540.432,539.067,0.0
51714.0,STARLINK-3528,PAYLOAD,2023-06-11 09:39:03,15.0883954,0.0001007,53.2162,148.5615,79.7868,280.3238,7.1994e-05,8.58e-06,0.0,0 STARLINK-3528,1 51714U 22016A   23162.40211983  .00000858  00000-0  71994-4 0  9996,2 51714  53.2162 148.5615 0001007  79.7868 280.3238 15.08839540 72112,6917.882,95.438,540.443,539.05,0.0
51714.0,STARLINK-3528,PAYLOAD,2023-06-11 16:00:35,15.08836206,0.0001023,53.2163,147.372,80.2643,279.8465,4.6469e-05,4.52e-06,0.0,0 STARLINK-3528,1 51714U 22016A   23162.66708315  .00000452  00000-0  46469-4 0  9993,2 51714  53.2163 147.3720 0001023  80.2643 279.8465 15.08836206 73227,6917.892,95.438,540.465,539.049,0.0
51714.0,STARLINK-3528,PAYLOAD,2023-06-11 23:57:31,15.08838848,0.0001016,53.2163,145.8851,85.0979,275.0129,6.777e-05,7.91e-06,0.0,0 STARLINK-3528,1 51714U 22016A   23162.99828127  .00000791  00000-0  67770-4 0  9997,2 51714  53.2163 145.8851 0001016  85.0979 275.0129 15.08838848 72208,6917.884,95.438,540.452,539.046,0.0
51714.0,STARLINK-3528,PAYLOAD,2023-06-12 15:51:24,15.08822863,0.0001337,53.2164,142.9116,80.2192,279.8951,-7.807e-05,-1.53e-05,0.0,0 STARLINK-3528,1 51714U 22016A   23163.66070053 -.00001530  00000-0 -78070-4 0  9998,2 51714  53.2164 142.9116 0001337  80.2192 279.8951 15.08822863 73375,6917.933,95.439,540.723,538.873,0.0
51714.0,STARLINK-3528,PAYLOAD,2023-06-12 22:12:57,15.08819873,0.0001063,53.2164,141.7219,83.406,276.7053,-9.0033e-05,-1.72e-05,0.0,0 STARLINK-3528,1 51714U 22016A   23163.92566454 -.00001720  00000-0 -90033-4 0  9996,2 51714  53.2164 141.7219 0001063  83.4060 276.7053 15.08819873 72343,6917.942,95.439,540.542,539.072,0.0
51714.0,STARLINK-3528,PAYLOAD,2023-06-13 07:45:15,15.08828588,0.000114,53.2166,139.938,82.3235,277.7887,-4.1274e-05,-9.44e-06,0.0,0 STARLINK-3528,1 51714U 22016A   23164.32310128 -.00000944  00000-0 -41274-4 0  9996,2 51714  53.2166 139.9380 0001140  82.3235 277.7887 15.08828588 73475,6917.915,95.438,540.569,538.992,0.0
51714.0,STARLINK-3528,PAYLOAD,2023-06-14 01:14:30,15.08834438,0.000116,53.2167,136.6678,81.9815,278.1309,3.1425e-05,2.12e-06,0.0,0 STARLINK-3528,1 51714U 22016A   23165.05173998  .00000212  00000-0  31425-4 0  9992,2 51714  53.2167 136.6678 0001160  81.9815 278.1309 15.08834438 73588,6917.897,95.438,540.565,538.96,0.0
51714.0,STARLINK-3528,PAYLOAD,2023-06-14 07:36:02,15.08838148,0.000111,53.2167,135.4784,89.7904,270.3215,7.4616e-05,9e-06,0.0,0 STARLINK-3528,1 51714U 22016A   23165.31669782  .00000900  00000-0  74616-4 0  9995,2 51714  53.2167 135.4784 0001110  89.7904 270.3215 15.08838148 72551,6917.886,95.438,540.519,538.983,0.0
51714.0,STARLINK-3528,PAYLOAD,2023-06-14 15:32:58,15.08845079,0.0001247,53.2172,133.992,82.6766,277.4368,0.00011042,1.47e-05,0.0,0 STARLINK-3528,1 51714U 22016A   23165.64789368  .00001470  00000-0  11042-3 0  9990,2 51714  53.2172 133.9920 0001247  82.6766 277.4368 15.08845079 73673,6917.865,95.437,540.593,538.867,0.0
51714.0,STARLINK-3528,PAYLOAD,2023-06-15 04:16:02,15.08846711,0.0001283,53.2169,131.6117,88.2452,271.8687,0.00026235,3.891e-05,0.0,0 STARLINK-3528,1 51714U 22016A   23166.17781205  .00003891  00000-0  26235-3 0  9990,2 51714  53.2169 131.6117 0001283  88.2452 271.8687 15.08846711 72682,6917.86,95.437,540.612,538.837,0.0
